{
  "type": "FeatureCollection",
  "features": [
    {
      "type": "Feature",
      "properties": {
        "norad_id": 37846,
        "name": "GSAT0101 (GALILEO-PFM)",
        "group": "gnss",
        "lat": -56.43145600368906,
        "lon": -115.18284049251321,
        "alt_km": 23222.356072729577,
        "timestamp": "2025-12-05T16:54:14.894303+00:00",
        "meta_object_name": "GSAT0101 (GALILEO-PFM)",
        "meta_object_id": "2011-060A",
        "meta_epoch": "2025-12-04T02:27:04.519296",
        "meta_mean_motion": 1.70475494,
        "meta_eccentricity": 0.00028233,
        "meta_inclination": 57.0547,
        "meta_ra_of_asc_node": 347.0545,
        "meta_arg_of_pericenter": 310.6019,
        "meta_mean_anomaly": 49.4066,
        "meta_ephemeris_type": 0,
        "meta_classification_type": "U",
        "meta_norad_cat_id": 37846,
        "meta_element_set_no": 999,
        "meta_rev_at_epoch": 8779,
        "meta_bstar": 0,
        "meta_mean_motion_dot": -7e-07,
        "meta_mean_motion_ddot": 0,
        "tle_line1": "1 37846U 11060A   25338.10213564 -.00000070  00000+0  00000+0 0  9995",
        "tle_line2": "2 37846  57.0547 347.0545 0002823 310.6019  49.4066  1.70475494 87792"
      },
      "geometry": {
        "type": "Point",
        "coordinates": [
          -115.18284049251321,
          -56.43145600368906
        ]
      }
    },
    {
      "type": "Feature",
      "properties": {
        "norad_id": 37847,
        "name": "GSAT0102 (GALILEO-FM2)",
        "group": "gnss",
        "lat": -40.859951344094895,
        "lon": -47.114934790324085,
        "alt_km": 23212.54431603418,
        "timestamp": "2025-12-05T16:54:14.894315+00:00",
        "meta_object_name": "GSAT0102 (GALILEO-FM2)",
        "meta_object_id": "2011-060B",
        "meta_epoch": "2025-12-05T04:42:38.564352",
        "meta_mean_motion": 1.70475694,
        "meta_eccentricity": 0.00048427,
        "meta_inclination": 57.0552,
        "meta_ra_of_asc_node": 347.0252,
        "meta_arg_of_pericenter": 307.1958,
        "meta_mean_anomaly": 49.7725,
        "meta_ephemeris_type": 0,
        "meta_classification_type": "U",
        "meta_norad_cat_id": 37847,
        "meta_element_set_no": 999,
        "meta_rev_at_epoch": 8781,
        "meta_bstar": 0,
        "meta_mean_motion_dot": -7.6e-07,
        "meta_mean_motion_ddot": 0,
        "tle_line1": "1 37847U 11060B   25339.19627968 -.00000076  00000+0  00000+0 0  9999",
        "tle_line2": "2 37847  57.0552 347.0252 0004842 307.1958  49.7725  1.70475694 87810"
      },
      "geometry": {
        "type": "Point",
        "coordinates": [
          -47.114934790324085,
          -40.859951344094895
        ]
      }
    },
    {
      "type": "Feature",
      "properties": {
        "norad_id": 37867,
        "name": "COSMOS 2476 (744)",
        "group": "gnss",
        "lat": 44.44023858463677,
        "lon": 106.38236096651609,
        "alt_km": 19185.895055622084,
        "timestamp": "2025-12-05T16:54:14.894327+00:00",
        "meta_object_name": "COSMOS 2476 (744)",
        "meta_object_id": "2011-064A",
        "meta_epoch": "2025-12-02T19:57:36.313920",
        "meta_mean_motion": 2.13101261,
        "meta_eccentricity": 0.00239603,
        "meta_inclination": 65.1573,
        "meta_ra_of_asc_node": 79.5068,
        "meta_arg_of_pericenter": 233.4935,
        "meta_mean_anomaly": 133.1658,
        "meta_ephemeris_type": 0,
        "meta_classification_type": "U",
        "meta_norad_cat_id": 37867,
        "meta_element_set_no": 999,
        "meta_rev_at_epoch": 10958,
        "meta_bstar": 0,
        "meta_mean_motion_dot": -2.2e-07,
        "meta_mean_motion_ddot": 0,
        "tle_line1": "1 37867U 11064A   25336.83167030 -.00000022  00000+0  00000+0 0  9993",
        "tle_line2": "2 37867  65.1573  79.5068 0023960 233.4935 133.1658  2.13101261109581"
      },
      "geometry": {
        "type": "Point",
        "coordinates": [
          106.38236096651609,
          44.44023858463677
        ]
      }
    },
    {
      "type": "Feature",
      "properties": {
        "norad_id": 37868,
        "name": "COSMOS 2477 (745)",
        "group": "gnss",
        "lat": -45.17854652642592,
        "lon": -72.78489146029172,
        "alt_km": 19081.781506384334,
        "timestamp": "2025-12-05T16:54:14.894344+00:00",
        "meta_object_name": "COSMOS 2477 (745)",
        "meta_object_id": "2011-064B",
        "meta_epoch": "2025-12-01T05:34:43.743072",
        "meta_mean_motion": 2.1310269,
        "meta_eccentricity": 0.00209845,
        "meta_inclination": 65.1625,
        "meta_ra_of_asc_node": 79.6383,
        "meta_arg_of_pericenter": 233.8301,
        "meta_mean_anomaly": 166.8442,
        "meta_ephemeris_type": 0,
        "meta_classification_type": "U",
        "meta_norad_cat_id": 37868,
        "meta_element_set_no": 999,
        "meta_rev_at_epoch": 10954,
        "meta_bstar": 0,
        "meta_mean_motion_dot": -1.2e-07,
        "meta_mean_motion_ddot": 0,
        "tle_line1": "1 37868U 11064B   25335.23245073 -.00000012  00000+0  00000+0 0  9990",
        "tle_line2": "2 37868  65.1625  79.6383 0020984 233.8301 166.8442  2.13102690109542"
      },
      "geometry": {
        "type": "Point",
        "coordinates": [
          -72.78489146029172,
          -45.17854652642592
        ]
      }
    },
    {
      "type": "Feature",
      "properties": {
        "norad_id": 37869,
        "name": "COSMOS 2475 (743)",
        "group": "gnss",
        "lat": -6.472587946795689,
        "lon": -97.48346515811869,
        "alt_km": 19099.04848120804,
        "timestamp": "2025-12-05T16:54:14.894355+00:00",
        "meta_object_name": "COSMOS 2475 (743)",
        "meta_object_id": "2011-064C",
        "meta_epoch": "2025-12-02T03:10:18.719904",
        "meta_mean_motion": 2.13101359,
        "meta_eccentricity": 0.0026048,
        "meta_inclination": 65.1701,
        "meta_ra_of_asc_node": 79.6277,
        "meta_arg_of_pericenter": 248.2415,
        "meta_mean_anomaly": 78.6584,
        "meta_ephemeris_type": 0,
        "meta_classification_type": "U",
        "meta_norad_cat_id": 37869,
        "meta_element_set_no": 999,
        "meta_rev_at_epoch": 10956,
        "meta_bstar": 0,
        "meta_mean_motion_dot": -1.8e-07,
        "meta_mean_motion_ddot": 0,
        "tle_line1": "1 37869U 11064C   25336.13216111 -.00000018  00000+0  00000+0 0  9998",
        "tle_line2": "2 37869  65.1701  79.6277 0026048 248.2415  78.6584  2.13101359109563"
      },
      "geometry": {
        "type": "Point",
        "coordinates": [
          -97.48346515811869,
          -6.472587946795689
        ]
      }
    },
    {
      "type": "Feature",
      "properties": {
        "norad_id": 37948,
        "name": "BEIDOU-2 IGSO-5 (C10)",
        "group": "gnss",
        "lat": 24.77596173658653,
        "lon": 69.42410418643749,
        "alt_km": 35663.36031287142,
        "timestamp": "2025-12-05T16:54:14.894366+00:00",
        "meta_object_name": "BEIDOU-2 IGSO-5 (C10)",
        "meta_object_id": "2011-073A",
        "meta_epoch": "2025-12-04T19:17:55.815936",
        "meta_mean_motion": 1.00292045,
        "meta_eccentricity": 0.01106348,
        "meta_inclination": 48.036,
        "meta_ra_of_asc_node": 273.956,
        "meta_arg_of_pericenter": 222.1589,
        "meta_mean_anomaly": 319.7219,
        "meta_ephemeris_type": 0,
        "meta_classification_type": "U",
        "meta_norad_cat_id": 37948,
        "meta_element_set_no": 999,
        "meta_rev_at_epoch": 5118,
        "meta_bstar": 0,
        "meta_mean_motion_dot": -1.77e-06,
        "meta_mean_motion_ddot": 0,
        "tle_line1": "1 37948U 11073A   25338.80411824 -.00000177  00000+0  00000+0 0  9996",
        "tle_line2": "2 37948  48.0360 273.9560 0110634 222.1589 319.7219  1.00292045 51180"
      },
      "geometry": {
        "type": "Point",
        "coordinates": [
          69.42410418643749,
          24.77596173658653
        ]
      }
    },
    {
      "type": "Feature",
      "properties": {
        "norad_id": 37951,
        "name": "LUCH 5A (SDCM/PRN 140)",
        "group": "gnss",
        "lat": 7.0564529003941034,
        "lon": 134.9850844367595,
        "alt_km": 35795.998970327535,
        "timestamp": "2025-12-05T16:54:14.894377+00:00",
        "meta_object_name": "LUCH 5A (SDCM/PRN 140)",
        "meta_object_id": "2011-074B",
        "meta_epoch": "2025-12-05T02:30:23.146848",
        "meta_mean_motion": 1.00273509,
        "meta_eccentricity": 0.00059088,
        "meta_inclination": 8.2594,
        "meta_ra_of_asc_node": 76.6974,
        "meta_arg_of_pericenter": 175.41,
        "meta_mean_anomaly": 26.6478,
        "meta_ephemeris_type": 0,
        "meta_classification_type": "U",
        "meta_norad_cat_id": 37951,
        "meta_element_set_no": 999,
        "meta_rev_at_epoch": 5110,
        "meta_bstar": 0,
        "meta_mean_motion_dot": -4.1e-07,
        "meta_mean_motion_ddot": 0,
        "tle_line1": "1 37951U 11074B   25339.10443457 -.00000041  00000+0  00000+0 0  9992",
        "tle_line2": "2 37951   8.2594  76.6974 0005908 175.4100  26.6478  1.00273509 51101"
      },
      "geometry": {
        "type": "Point",
        "coordinates": [
          134.9850844367595,
          7.0564529003941034
        ]
      }
    }
  ]
}